[{"OBJECT_NAME":"OBJECT J","OBJECT_ID":"2023-085J","EPOCH":"2026-03-09T22:47:59.920512","MEAN_MOTION":15.31507187,"ECCENTRICITY":0.00067028,"INCLINATION":97.4828,"RA_OF_ASC_NODE":180.1819,"ARG_OF_PERICENTER":41.7877,"MEAN_ANOMALY":318.3875,"EPHEMERIS_TYPE":0,"CLASSIFICATION_TYPE":"U","NORAD_CAT_ID":57012,"ELEMENT_SET_NO":999,"REV_AT_EPOCH":15156,"BSTAR":0.00064525349,"MEAN_MOTION_DOT":0.00019595,"MEAN_MOTION_DDOT":0},{"OBJECT_NAME":"COSMOS 660","OBJECT_ID":"1974-044A","EPOCH":"2026-03-09T22:24:08.129952","MEAN_MOTION":14.66679771,"ECCENTRICITY":0.04337529,"INCLINATION":82.9408,"RA_OF_ASC_NODE":355.0742,"ARG_OF_PERICENTER":327.8768,"MEAN_ANOMALY":29.6656,"EPHEMERIS_TYPE":0,"CLASSIFICATION_TYPE":"U","NORAD_CAT_ID":7337,"ELEMENT_SET_NO":999,"REV_AT_EPOCH":62706,"BSTAR":0.0004937415,"MEAN_MOTION_DOT":0.0001202,"MEAN_MOTION_DDOT":0}]
